ORBCOMM FM37            
1 33064U 08031E   25082.60207881  .00006648  00000+0  91099-3 0  9991
2 33064  48.4400  30.3939 0005796   2.5398 167.6054 14.79297094901370
ORBCOMM FM40            
1 33065U 08031F   25082.57391583  .00008746  00000+0  11310-2 0  9999
2 33065  48.4426  15.9594 0006949  16.3578 153.9763 14.81416319901460
VESSELSAT 1             
1 37840U 11058C   25082.62145551  .00000617  00000+0  19214-3 0  9996
2 37840  19.9615 251.6421 0013626 325.8689  34.0839 14.11327627694207
ORBCOMM FM109           
1 40086U 14040A   25082.18897908  .00003211  00000+0  72920-3 0  9993
2 40086  47.0024  62.3950 0002704 300.7119  59.3500 14.57954957568519
ORBCOMM FM107           
1 40087U 14040B   25082.63252980  .00002882  00000+0  65729-3 0  9991
2 40087  47.0042  61.2946 0002049 268.3741  91.6910 14.58018577568698
ORBCOMM FM106           
1 40088U 14040C   25082.55344253  .00004581  00000+0  80094-3 0  9998
2 40088  47.0587 250.6065 0016350  27.5998 332.5757 14.69123745570884
ORBCOMM FM111           
1 40089U 14040D   25082.76555097  .00007732  00000+0  89957-3 0  9990
2 40089  47.0003 111.1868 0029349 144.6894 215.5953 14.85621283577522
ORBCOMM FM104           
1 40090U 14040E   25082.73339168  .00002474  00000+0  58827-3 0  9998
2 40090  47.0033  93.4054 0016179 178.1913 181.9032 14.56452751568262
